OBJECT_NAME,OBJECT_ID,EPOCH,MEAN_MOTION,ECCENTRICITY,INCLINATION,RA_OF_ASC_NODE,ARG_OF_PERICENTER,MEAN_ANOMALY,EPHEMERIS_TYPE,CLASSIFICATION_TYPE,NORAD_CAT_ID,ELEMENT_SET_NO,REV_AT_EPOCH,BSTAR,MEAN_MOTION_DOT,MEAN_MOTION_DDOT
OSCAR 7 (AO-7),1974-089B,2026-07-14T22:11:40.259328,12.53698568,.00126607,101.9906,209.4604,78.8464,37.5230,0,U,7530,999,36399,.95665236E-4,-.31E-6,0
PHASE 3B (AO-10),1983-058B,2026-07-13T02:29:46.528800,2.05872336,.60022234,25.9345,215.2934,122.7887,309.2966,0,U,14129,999,29602,0,-.187E-5,0
UOSAT 2 (UO-11),1984-021B,2026-07-14T20:58:57.784224,14.90848475,.00092197,97.8075,161.1435,92.3428,267.8846,0,U,14781,999,26125,.64599412E-4,.581E-5,0
LUSAT (LO-19),1990-005G,2026-07-14T14:25:26.175360,14.34130652,.0012525,98.8847,218.1611,122.9909,237.2480,0,U,20442,999,90632,.3182E-4,.42E-6,0
EYESAT A (AO-27),1993-061C,2026-07-14T18:13:46.361568,14.30948990,.00087859,98.6869,263.1613,27.0664,333.0976,0,U,22825,999,71094,.31560933E-4,.38E-6,0
ITAMSAT (IO-26),1993-061D,2026-07-14T17:32:16.484640,14.31376581,.00089948,98.6815,263.0527,10.7506,349.3868,0,U,22826,999,71125,.32026169E-4,.4E-6,0
RADIO ROSTO (RS15),1994-085A,2026-07-14T21:00:57.519936,11.27583555,.01569031,64.8156,258.4376,358.7655,1.2862,0,U,23439,999,29902,.66517315E-3,-.19E-6,0
JAS-2 (FO-29),1996-046B,2026-07-14T19:32:22.902144,13.53275637,.03503801,98.5220,40.8992,24.9279,336.8338,0,U,24278,999,47690,.45827288E-4,.11E-6,0
TECHSAT 1B (GO-32),1998-043D,2026-07-14T21:08:00.984480,14.24433320,.00021807,99.0085,189.3396,115.0869,245.0535,0,U,25397,999,45527,.22166027E-4,.5E-7,0
ISS (ZARYA),1998-067A,2026-07-15T02:54:37.163808,15.49005161,.0007251,51.6305,161.8506,303.7745,56.2552,0,U,25544,999,57608,.55898E-4,.263E-4,0
PCSAT (NO-44),2001-043C,2026-07-14T07:53:52.899936,14.31964812,.00059278,67.0494,174.0696,266.5603,93.4821,0,U,26931,999,29433,.34932941E-4,.11E-6,0
SAUDISAT 1C (SO-50),2002-058C,2026-07-14T20:52:02.049888,14.83098045,.00745424,64.5518,43.3332,257.3268,101.9497,0,U,27607,999,26856,.62486709E-4,.377E-5,0
CUTE-1 (CO-55),2003-031E,2026-07-14T22:12:41.107392,14.24351439,.00108304,98.6742,204.1360,103.4126,256.8261,0,U,27844,999,19562,.78445689E-4,.138E-5,0
CUBESAT XI-IV (CO-57),2003-031J,2026-07-14T22:16:08.430240,14.23634433,.00105528,98.6775,203.8287,120.2508,239.9717,0,U,27848,999,19532,.68510296E-4,.113E-5,0
MOZHAETS 4 (RS22),2003-042A,2026-07-15T00:04:11.019648,14.73515623,.00111896,98.3467,21.1491,173.8554,337.3596,0,U,27939,999,21964,.13215185E-3,.806E-5,0
CUBESAT XI-V,2005-043F,2026-07-14T09:02:23.284032,14.72701135,.00152302,98.3013,351.5747,117.6296,242.6459,0,U,28895,999,10575,.11574661E-3,.686E-5,0
CUTE-1.7+APD II (CO-65),2008-021C,2026-07-14T21:21:01.655136,15.09699520,.00070284,97.8291,177.8918,300.6294,59.4241,0,U,32785,999,98937,.18541237E-3,.2921E-4,0
SEEDS II (CO-66),2008-021J,2026-07-14T13:07:00.152256,15.33652134,.0002981,97.7520,194.7703,157.5049,202.6324,0,U,32791,999,99148,.32244E-3,.1041E-3,0
YUBILEINY (RS30),2008-025A,2026-07-14T20:43:17.612256,12.43180571,.00185953,82.5056,338.2226,249.7511,110.1569,0,U,32953,999,82313,-.26543951E-3,-.27E-6,0
KKS-1 (KISEKI),2009-002H,2026-07-14T20:23:29.656320,14.83188731,.00074,98.1174,118.7302,190.1737,169.9327,0,U,33499,999,94029,.82916514E-4,.621E-5,0
SWISSCUBE,2009-051B,2026-07-14T17:46:10.899552,14.62530263,.00078235,98.4008,104.1063,120.2894,239.9082,0,U,35932,999,89318,.10205829E-3,.468E-5,0
BEESAT-1,2009-051C,2026-07-14T16:41:56.910912,14.61761410,.00060926,98.3936,103.6385,131.1262,229.0465,0,U,35933,999,89320,.87927392E-4,.389E-5,0
ITUPSAT1,2009-051E,2026-07-14T17:03:33.869088,14.60478385,.00080547,98.4019,102.8162,144.4895,215.6843,0,U,35935,999,89275,.84349633E-4,.36E-5,0
XIWANG-1 (HOPE-1),2009-072B,2026-07-14T19:57:26.753760,13.16441439,.00075499,100.4033,149.2239,165.4885,194.6446,0,U,36122,999,79664,.7964914E-3,.26E-5,0
O/OREOS (USA 219),2010-062C,2026-07-14T22:05:32.931456,14.93851045,.00139672,71.9697,17.5110,5.6048,354.5276,0,U,37224,999,12078,.10553521E-3,.1059E-4,0
JUGNU,2011-058B,2026-07-14T23:06:25.919136,14.13783465,.00185638,19.9594,139.6754,23.9452,34.0494,0,U,37839,999,76296,.39830624E-4,.343E-5,0
SRMSAT,2011-058D,2026-07-14T07:00:26.119872,14.11580990,.0011787,19.9711,255.4136,141.3057,265.6885,0,U,37841,999,76165,.42066051E-4,.343E-5,0
STRAND-1,2013-009E,2026-07-14T11:41:03.699168,14.37178635,.00093749,98.3933,15.0510,143.0599,217.1235,0,U,39090,999,70098,.58406637E-4,.131E-5,0
ZACUBE-1 (TSHEPISOSAT),2013-066B,2026-07-14T22:25:57.565056,15.01328063,.00440123,97.8008,158.4085,156.0408,204.2877,0,U,39417,999,68489,.99158461E-4,.1238E-4,0
GOMX-1,2013-066Q,2026-07-14T23:12:24.998400,14.69542717,.01282705,97.6468,34.6766,348.9451,10.8942,0,U,39430,999,67399,.12075477E-3,.76E-5,0
