OSCAR 7 (AO-7)          
1 07530U 74089B   26195.92477152 -.00000031  00000+0  95665-4 0  9992
2 07530 101.9906 209.4604 0012660  78.8464  37.5230 12.53698568363993
PHASE 3B (AO-10)        
1 14129U 83058B   26194.10401075 -.00000187  00000+0  00000+0 0  9996
2 14129  25.9345 215.2934 6002223 122.7887 309.2966  2.05872336296023
UOSAT 2 (UO-11)         
1 14781U 84021B   26195.87427991  .00000581  00000+0  64599-4 0  9996
2 14781  97.8075 161.1435 0009219  92.3428 267.8846 14.90848475261256
LUSAT (LO-19)           
1 20442U 90005G   26195.60099740  .00000042  00000+0  31820-4 0  9997
2 20442  98.8847 218.1611 0012525 122.9909 237.2480 14.34130652906320
EYESAT A (AO-27)        
1 22825U 93061C   26195.75956437  .00000038  00000+0  31561-4 0  9997
2 22825  98.6869 263.1613 0008785  27.0664 333.0976 14.30948990710941
ITAMSAT (IO-26)         
1 22826U 93061D   26195.73074635  .00000040  00000+0  32026-4 0  9997
2 22826  98.6815 263.0527 0008994  10.7506 349.3868 14.31376581711259
RADIO ROSTO (RS15)      
1 23439U 94085A   26195.87566574 -.00000019  00000+0  66517-3 0  9996
2 23439  64.8156 258.4376 0156903 358.7655   1.2862 11.27583555299024
JAS-2 (FO-29)           
1 24278U 96046B   26195.81415396  .00000011  00000+0  45827-4 0  9999
2 24278  98.5220  40.8992 0350380  24.9279 336.8338 13.53275637476907
TECHSAT 1B (GO-32)      
1 25397U 98043D   26195.88056695  .00000005  00000+0  22166-4 0  9995
2 25397  99.0085 189.3396 0002180 115.0869 245.0535 14.24433320455272
ISS (ZARYA)             
1 25544U 98067A   26196.12126347  .00002630  00000+0  55898-4 0  9999
2 25544  51.6305 161.8506 0007251 303.7745  56.2552 15.49005161576086
PCSAT (NO-44)           
1 26931U 01043C   26195.32908449  .00000011  00000+0  34933-4 0  9998
2 26931  67.0494 174.0696 0005927 266.5603  93.4821 14.31964812294334
SAUDISAT 1C (SO-50)     
1 27607U 02058C   26195.86946817  .00000377  00000+0  62487-4 0  9996
2 27607  64.5518  43.3332 0074542 257.3268 101.9497 14.83098045268566
CUTE-1 (CO-55)          
1 27844U 03031E   26195.92547578  .00000138  00000+0  78446-4 0  9996
2 27844  98.6742 204.1360 0010830 103.4126 256.8261 14.24351439195627
CUBESAT XI-IV (CO-57)   
1 27848U 03031J   26195.92787535  .00000113  00000+0  68510-4 0  9993
2 27848  98.6775 203.8287 0010552 120.2508 239.9717 14.23634433195325
MOZHAETS 4 (RS22)       
1 27939U 03042A   26196.00290532  .00000806  00000+0  13215-3 0  9992
2 27939  98.3467  21.1491 0011189 173.8554 337.3596 14.73515623219645
CUBESAT XI-V            
1 28895U 05043F   26195.37665838  .00000686  00000+0  11575-3 0  9994
2 28895  98.3013 351.5747 0015230 117.6296 242.6459 14.72701135105754
CUTE-1.7+APD II (CO-65) 
1 32785U 08021C   26195.88960249  .00002921  00000+0  18541-3 0  9990
2 32785  97.8291 177.8918 0007028 300.6294  59.4241 15.09699520989372
SEEDS II (CO-66)        
1 32791U 08021J   26195.54652954  .00010410  00000+0  32244-3 0  9999
2 32791  97.7520 194.7703 0002981 157.5049 202.6324 15.33652134991489
YUBILEINY (RS30)        
1 32953U 08025A   26195.86339829 -.00000027  00000+0 -26544-3 0  9992
2 32953  82.5056 338.2226 0018595 249.7511 110.1569 12.43180571823135
KKS-1 (KISEKI)          
1 33499U 09002H   26195.84964880  .00000621  00000+0  82917-4 0  9998
2 33499  98.1174 118.7302 0007400 190.1737 169.9327 14.83188731940296
SWISSCUBE               
1 35932U 09051B   26195.74040393  .00000468  00000+0  10206-3 0  9999
2 35932  98.4008 104.1063 0007823 120.2894 239.9082 14.62530263893188
BEESAT-1                
1 35933U 09051C   26195.69579758  .00000389  00000+0  87927-4 0  9993
2 35933  98.3936 103.6385 0006092 131.1262 229.0465 14.61761410893203
ITUPSAT1                
1 35935U 09051E   26195.71080867  .00000360  00000+0  84350-4 0  9992
2 35935  98.4019 102.8162 0008054 144.4895 215.6843 14.60478385892756
XIWANG-1 (HOPE-1)       
1 36122U 09072B   26195.83155965  .00000260  00000+0  79649-3 0  9992
2 36122 100.4033 149.2239 0007549 165.4885 194.6446 13.16441439796641
O/OREOS (USA 219)       
1 37224U 10062C   26195.92052004  .00001059  00000+0  10554-3 0  9994
2 37224  71.9697  17.5110 0013967   5.6048 354.5276 14.93851045120783
JUGNU                   
1 37839U 11058B   26195.96279999  .00000343  00000+0  39831-4 0  9995
2 37839  19.9594 139.6754 0018563  23.9452  34.0494 14.13783465762968
SRMSAT                  
1 37841U 11058D   26195.29196898  .00000343  00000+0  42066-4 0  9994
2 37841  19.9711 255.4136 0011787 141.3057 265.6885 14.11580990761657
STRAND-1                
1 39090U 13009E   26195.48684837  .00000131  00000+0  58407-4 0  9997
2 39090  98.3933  15.0510 0009374 143.0599 217.1235 14.37178635700984
ZACUBE-1 (TSHEPISOSAT)  
1 39417U 13066B   26195.93469404  .00001238  00000+0  99158-4 0  9991
2 39417  97.8008 158.4085 0044012 156.0408 204.2877 15.01328063684898
GOMX-1                  
1 39430U 13066Q   26195.96695600  .00000760  00000+0  12075-3 0  9999
2 39430  97.6468  34.6766 0128270 348.9451  10.8942 14.69542717673991
